anon_ticket_number,issue_datetime,state,anon_plate_id,division,location,violation_desc,fine,issuing_agency,lat,lon,gps,zip_code
8979623,2017-12-06 12:29:00,PA,4728925,,6053 CASTOR AVE,BUS ONLY ZONE,51,PPA,40.035503,-75.08111,True,19149.0
8979624,2017-10-16 18:03:00,PA,4728926,,4300 CRESSON ST,STOPPING PROHIBITED,51,PPA,40.025712,-75.222495,True,19127.0
8979625,2017-11-02 22:09:00,PA,4728926,,4300 CRESSON ST,OVER TIME LIMIT,26,PPA,40.025792,-75.222557,True,19127.0
8979626,2017-11-05 20:19:00,PA,4728926,,4300 CRESSON ST,OVER TIME LIMIT,26,PPA,40.025898,-75.222708,True,19127.0
8979627,2017-11-11 13:53:00,NJ,4728927,,200 N 11TH ST,METER EXPIRED CC,36,PPA,39.956063,-75.157375,True,19107.0
8979628,2017-11-11 14:16:00,FL,4728928,,1100 ARCH ST,METER EXPIRED CC,36,PPA,39.953837,-75.158025,True,19107.0
8979629,2017-12-16 10:03:00,MD,4728929,,7100 CASTOR AVE,METER EXPIRED,26,PPA,40.048475,-75.068908,True,19149.0
8979630,2017-10-16 18:23:00,PA,1690479,,4423 PENNYPA,EXPIRED TAG,41,POLICE,,,,
8979719,2017-10-17 06:58:00,PA,2530595,,199 N 16TH ST,STOP PROHIBITED CC,76,PPA,39.95617,-75.166025,True,19102.0
8979720,2017-10-02 10:40:00,PA,4728988,,1300 W CHEW AVE,DOUBLE PARKED,51,POLICE,40.03962213217372,-75.14287977274066,False,
8979721,2017-12-21 19:15:00,NJ,4728989,,1000 LOCUST ST,HP RESERVED SPACE,301,PPA,39.947755,-75.158187,True,
8979722,2017-11-11 17:33:00,PA,2518169,,300 N FRONT ST,OVER TIME LIMIT CC,36,PPA,39.955535,-75.140308,True,
8979767,2017-11-14 16:17:00,PA,4729012,,400 PINE ST,OVER TIME LIMIT CC,36,PPA,39.943748,-75.150215,True,19106.0
8979768,2017-11-28 11:28:00,PA,4729012,,300 BAINBRIDGE ST,FIRE HYDRANT,76,PPA,39.940588,-75.147927,True,19147.0
8979769,2017-10-05 12:46:00,PA,1157415,,6437 CASTOR AVE,METER EXPIRED,26,PPA,40.040257,-75.076538,True,19149.0
8979770,2017-11-13 16:52:00,PA,4729013,,5614 N BROAD ST,METER EXPIRED,26,PPA,40.039637,-75.144698,True,19141.0
8979771,2017-11-21 16:03:00,PA,4729014,,1 HILLTOP RD,HP RESERVED SPACE,301,PPA,40.076718,-75.208598,True,
8979772,2017-10-17 11:04:00,NJ,4729015,,1212 SPRUCE ST,METER EXPIRED CC,36,PPA,39.946632,-75.161753,True,19107.0
8979816,2017-12-15 09:50:00,MD,4729029,,2048 POPLAR ST,BLOCKING DRIVEWAY CC,76,POLICE,39.97161138085283,-75.17093499828319,False,
8979817,2017-10-10 13:46:00,PA,1652787,,3900 CHESTNUT ST,METER EXPIRED CC,36,PPA,39.95546,-75.200672,True,19104.0
8979818,2017-12-21 11:01:00,PA,1652787,,1 S FRONT ST,LOADING ZONE   CC,51,PPA,39.94907,-75.142137,True,19106.0
8979860,2017-11-22 13:11:00,NJ,4729050,,300 SOUTH ST,METER EXPIRED CC,36,PPA,39.94147,-75.148672,True,
8979861,2017-11-22 11:08:00,PA,4729051,,1800 ALLEGHENY AVE,METER EXPIRED,26,PPA,39.995415,-75.112593,True,
8979904,2017-11-14 13:40:00,PA,4729074,,799 N 22ND ST,OVER TIME LIMIT,26,PPA,39.96898,-75.17388,True,19130.0
8979905,2017-11-22 13:42:00,PA,4729074,,799 N 22ND ST,OVER TIME LIMIT,26,PPA,39.969035,-75.173902,True,19130.0
8979906,2017-10-06 21:39:00,PA,4729075,,400 S 9TH ST,OVER TIME LIMIT CC,36,PPA,39.944332,-75.15673,True,19147.0
8979907,2017-12-02 09:25:00,PA,4729075,,715 PINE ST,STREET CLEANING,31,PPA,39.944287,-75.154152,True,19106.0
8979908,2017-10-16 20:34:00,PA,4729076,,3400 SPRUCE ST,STOP PROHIBITED CC,76,PPA,39.950805,-75.194435,True,19104.0
8979909,2017-11-22 17:20:00,PA,4729076,,130 N 3RD ST,STOP PROHIBITED CC,76,PPA,39.952975,-75.145013,True,19106.0
8979910,2017-11-09 13:44:00,PA,4729077,,1000 MCKEAN ST,OVER TIME LIMIT,26,PPA,39.924808,-75.162835,True,19148.0
8979911,2017-11-27 14:03:00,PA,2174984,,3333 WALNUT ST,METER EXPIRED CC,36,PPA,39.952792,-75.19144,True,19104.0
8979912,2017-12-01 19:24:00,PA,899046,,529 S 4TH ST,PASSENGR LOADNG ZONE,31,PPA,39.941865,-75.149152,True,19147.0
8979913,2017-12-08 18:59:00,PA,1437947,,4400 MAIN ST,METER EXPIRED,26,PPA,40.026695,-75.226427,True,19127.0
8979956,2017-10-21 21:13:00,PA,4729095,,3600 N BROAD ST,METER EXPIRED,26,PPA,40.008515,-75.151278,True,19140.0
8979957,2017-10-02 12:19:00,PA,2359531,,1 S 3RD ST,METER EXPIRED CC,36,PPA,39.9488,-75.146005,True,19106.0
8979958,2017-11-20 16:38:00,PA,4729096,,8407 GERMANTOWN AVE,METER EXPIRED,26,PPA,40.075235,-75.205163,True,19118.0
8979959,2017-10-23 18:26:00,PA,4729097,,500 S 4TH ST,EXPIRED INSPECTION,41,PPA,39.941877,-75.149028,True,19147.0
8979960,2017-10-17 08:52:00,DE,4729098,,1498 S PENN SQ,BUS ONLY ZONE   CC,76,SEPTA,39.95183225594996,-75.16481422914717,False,19102.0
8979961,2017-09-27 13:15:00,PA,4729099,,1600 COMMERCE,PARKING PROHBITED CC,51,CENTER C,,,,
8979962,2017-11-03 12:06:00,PA,4729099,,833 CHESTNUT ST,METER EXPIRED CC,36,PPA,39.950088,-75.154988,True,19107.0
8980010,2017-10-01 10:06:00,PA,4729132,,2200 FONTAIN ST,SIDEWALK,51,POLICE,39.98602605342791,-75.17090642796272,False,
8980011,2017-09-28 12:17:00,PA,4729133,,1600 N 26TH ST,CORNER CLEARANCE,51,POLICE,39.980010072696935,-75.17752977017251,False,19121.0
8980012,2017-10-01 00:30:00,PA,4729134,,1600 EDGLEY ST,EXPIRED INSPECTION,41,POLICE,39.9858803680448,-75.16046375119353,False,
8980013,2017-10-01 00:30:00,PA,4729134,,1600 EDGLEY ST,SIDEWALK,51,POLICE,39.9858803680448,-75.16046375119353,False,
8980014,2017-11-22 14:25:00,PA,4729135,,2000 S BROAD ST,METER EXPIRED,26,PPA,39.924648,-75.169585,True,19145.0
8980015,2017-12-06 11:20:00,PA,4729136,,1600 WALNUT ST,PASSENGR LOADNG ZONE,31,PPA,39.950175,-75.168645,True,19103.0
8980016,2017-12-10 00:00:00,PA,4729137,,2900 N BONSALL ST,SIDEWALK,51,POLICE,39.99973097804529,-75.16889273365354,False,
8980017,2017-12-13 09:01:00,PA,4729138,,802 PINE ST,PARKING PROHBITED CC,51,POLICE,39.94441394847652,-75.15586271676217,False,
8980018,2017-12-23 11:15:00,PA,4729139,,811 N 2ND ST,PARKING PROHBITED,41,POLICE,39.96354463136922,-75.14083272436127,False,19123.0
8980019,2017-11-15 15:19:00,PA,4729140,,1500 MONTROSE ST,OVER TIME LIMIT,26,PPA,39.93981,-75.168718,True,19146.0
8980020,2017-12-14 18:55:00,FL,4729141,,1 S 3RD ST,HP RESERVED SPACE,301,PPA,39.948973,-75.14602,True,19106.0
8980021,2017-09-30 07:25:00,NJ,4729142,,1500 W GIRARD AVE,SIDEWALK,51,POLICE,39.97178223027934,-75.16191384632889,False,
8980022,2017-09-28 18:55:00,PA,4729143,,28TH & MASTER ST,EXPIRED TAG,41,POLICE,,,,
8980023,2017-11-22 21:34:00,PA,4729144,,199 N 19TH ST,METER EXPIRED CC,36,PPA,39.956758,-75.170887,True,19103.0
8980024,2017-12-29 20:48:00,PA,4729144,,99 N 20TH ST,METER EXPIRED CC,36,PPA,39.955473,-75.172938,True,19103.0
8980025,2017-10-30 14:20:00,PA,4729145,,104 CHESTNUT ST,METER EXPIRED CC,36,PPA,39.948388,-75.142813,True,19106.0
8980026,2017-11-11 12:06:00,PA,4729145,,1 LETITIA ST,STOP PROHIBITED CC,76,PPA,39.949045,-75.143087,True,19106.0
8980027,2017-12-27 14:02:00,PA,4729145,,1200 PANAMA ST,PARKING PROHBITED CC,51,PPA,39.945565,-75.162335,True,19107.0
8980028,2017-12-28 12:51:00,PA,4729145,,1213 PINE ST,METER EXPIRED CC,36,PPA,39.945123,-75.161803,True,19107.0
8980029,2017-11-28 13:51:00,PA,4729146,,1 S 2ND ST,METER EXPIRED CC,36,PPA,39.949628,-75.14367,True,19106.0
8980030,2017-10-13 16:08:00,NC,4729147,,1800 SPRUCE ST,STOP PROHIBITED CC,76,PPA,39.948195,-75.172537,True,19103.0
8980031,2017-12-27 11:19:00,PA,4729148,,1849 E ALLEGHENY AVE,METER EXPIRED,26,PPA,39.995362,-75.112232,True,19134.0
8980032,2017-12-24 10:46:00,PA,2265337,,6489 MALVERN AVE,PARKING PROHBITED,41,POLICE,39.97985850231069,-75.25330234440331,False,19151.0
8980074,2017-10-07 19:02:00,NJ,4729171,,100 S 18TH ST,METER EXPIRED CC,36,PPA,39.950268,-75.172055,True,19103.0
8980075,2017-10-10 21:26:00,NJ,4729172,,200 DOCK ST,METER EXPIRED CC,36,PPA,39.946755,-75.145278,True,19106.0
8980076,2017-12-11 17:47:00,PA,4729173,,299 S 20TH ST,METER EXPIRED CC,36,PPA,39.94833,-75.17428,True,19103.0
8980077,2017-11-30 18:50:00,NJ,1787794,,1500 HUNTING,SIDEWALK,51,POLICE,,,,
8980078,2017-10-06 12:41:00,PA,732204,,1 S 39TH ST,METER EXPIRED CC,36,PPA,39.9556,-75.199985,True,19104.0
8980079,2017-10-27 12:56:00,PA,732204,,1 S 38TH ST,METER EXPIRED CC,36,PPA,39.955517,-75.198348,True,19104.0
8980080,2017-11-17 20:38:00,PA,4729174,,1100 SANSOM ST,METER EXPIRED CC,36,PPA,39.94949,-75.15947,True,19107.0
8980123,2017-11-20 09:57:00,PA,4729193,,4643 SANSOM ST,CORNER CLEARANCE,51,PPA,39.956572,-75.215377,True,19139.0
8980124,2017-12-08 10:23:00,PA,4729193,,1 S 47TH ST,EXPIRED INSPECTION,41,PPA,39.956258,-75.215565,True,
8980125,2017-12-12 00:00:00,PA,4729193,,1324 N 53RD ST,EXPIRED INSPECTION,41,POLICE,39.973777130949735,-75.22770591795566,False,19131.0
8980126,2017-12-01 19:35:00,PA,4729193,,4649 WALNUT ST,PARKING PROHBITED,41,POLICE,39.955668132536594,-75.21513888921505,False,
8980127,2017-11-11 12:54:00,PA,4729194,,5100 CHANCELLOR ST,OVER TIME LIMIT,26,PPA,39.956445,-75.225207,True,19139.0
8980128,2017-11-11 12:56:00,PA,4729195,,5100 CHANCELLOR ST,OVER TIME LIMIT,26,PPA,39.956307,-75.224428,True,19139.0
8980129,2017-11-10 21:47:00,PA,4729196,,1700 E PASSYUNK AVE,METER EXPIRED,26,PPA,39.928008,-75.16577,True,19148.0
8980130,2017-11-11 11:33:00,PA,4729197,,1 S 38TH ST,METER EXPIRED CC,36,PPA,39.955708,-75.198265,True,19104.0
8980131,2017-11-11 11:54:00,PA,4729198,,201 S 40TH ST,METER EXPIRED CC,36,PPA,39.953737,-75.202768,True,19104.0
8980132,2017-11-11 13:20:00,NY,4729199,,1 S 39TH ST,METER EXPIRED CC,36,PPA,39.956448,-75.199667,True,19104.0
8980133,2017-11-11 13:26:00,PA,4729200,,1 S 38TH ST,METER EXPIRED CC,36,PPA,39.955472,-75.19808,True,19104.0
8980134,2017-12-03 13:08:00,PA,4729200,,100 S 31ST ST,METER EXPIRED CC,36,PPA,39.95227,-75.18562,True,19104.0
8980135,2017-11-11 14:12:00,NY,4729201,,4000 CHESTNUT ST,METER EXPIRED,26,PPA,39.955755,-75.203168,True,19104.0
8980136,2017-10-17 11:40:00,PA,4729202,,4900 N HUTCHINSON ST,FIRE HYDRANT,76,PPA,40.028085,-75.139213,True,
8980137,2017-11-11 14:24:00,PA,4729203,,201 S 40TH ST,METER EXPIRED CC,36,PPA,39.954052,-75.202638,True,19104.0
8980138,2017-11-11 08:39:00,PA,4729203,,202 N 10TH ST,METER EXPIRED CC,36,PPA,39.955617,-75.155902,True,19107.0
8980139,2017-11-22 14:37:00,PA,4729203,,3700 N BROAD ST,BUS ONLY ZONE,51,PPA,40.009603,-75.1512,True,19140.0
8980140,2017-11-11 14:28:00,PA,4729204,,200 S 40TH ST,METER EXPIRED CC,36,PPA,39.953273,-75.202748,True,19104.0
8980141,2017-11-11 14:50:00,NJ,4729205,,3908 SPRUCE ST,METER EXPIRED CC,36,PPA,39.951533,-75.201395,True,19104.0
8980142,2017-11-11 07:27:00,PA,4729206,,400 ASHDALE ST,CORNER CLEARANCE,51,PPA,40.02797,-75.132248,True,
8980143,2017-11-10 22:49:00,PA,4729207,,508 SOUTH ST,METER EXPIRED CC,36,PPA,39.941952,-75.151113,True,19147.0
8980144,2017-11-10 22:48:00,PA,4729207,,508 SOUTH ST,EXPIRED INSPECTION,41,PPA,39.941862,-75.151068,True,19147.0
8980145,2017-11-11 09:44:00,PA,2486541,,1 W ARMAT ST,METER EXPIRED,26,PPA,40.034562,-75.17433,True,19144.0
8980146,2017-11-11 10:24:00,PA,2498257,,1 E ARMAT ST,METER EXPIRED,26,PPA,40.03533,-75.173322,True,19144.0
8980147,2017-11-11 10:26:00,PA,4729208,,5600 GERMANTOWN AVE,METER EXPIRED,26,PPA,40.03505,-75.173908,True,19144.0
8980148,2017-11-29 21:33:00,PA,4729208,,121 S 18TH ST,METER EXPIRED CC,36,PPA,39.951075,-75.1707,True,19103.0
8980192,2017-12-14 13:31:00,DE,34730,,300 LEVERINGTON AVE,PARKING PROHBITED,41,PPA,40.03258,-75.223638,True,19128.0
8980193,2017-11-22 12:57:00,WA,4729233,,200 CHESTNUT ST,METER EXPIRED CC,36,PPA,39.948438,-75.144415,True,19106.0
8980194,2017-11-22 13:10:00,PA,4729234,,100 MARKET ST,METER EXPIRED CC,36,PPA,39.949922,-75.143292,True,
8980195,2017-11-22 18:48:00,IN,4729235,,1 S 38TH ST,METER EXPIRED CC,36,PPA,39.955472,-75.198162,True,19104.0
8980196,2017-11-22 18:54:00,NJ,4729236,,1 S 38TH ST,METER EXPIRED CC,36,PPA,39.955105,-75.198083,True,19104.0
8980197,2017-11-22 19:23:00,PA,4729237,,1 S 40TH ST,STOP PROHIBITED CC,76,PPA,39.956328,-75.202077,True,19104.0
8980198,2017-11-24 07:05:00,PA,4729237,,3200 N BROAD ST,PARKING PROHBITED,41,POLICE,40.00238838883113,-75.15273863795244,False,19140.0
8980199,2017-10-12 15:48:00,PA,1535641,,1300 RACE ST,METER EXPIRED CC,36,PPA,39.956327,-75.161635,True,19107.0
8980200,2017-12-30 10:05:00,PA,2173998,,1100 FILBERT ST,METER EXPIRED CC,36,PPA,39.95283,-75.15796,True,19107.0
8980201,2017-11-22 14:53:00,NJ,4729238,,1 S 22ND ST,METER EXPIRED CC,36,PPA,39.952955,-75.17688,True,19103.0
8980202,2017-12-13 12:17:00,PA,4729239,,100 S 4TH ST,PARKING PROHBITED CC,51,PPA,39.948688,-75.147592,True,19106.0
8980203,2017-11-22 17:24:00,PA,4729240,,6300 RISING SUN AVE,METER EXPIRED,26,PPA,40.04874,-75.09639,True,19111.0
8980204,2017-11-22 17:25:00,PA,4729241,,6300 RISING SUN AVE,METER EXPIRED,26,PPA,40.049053,-75.096137,True,19111.0
8980205,2017-11-22 17:28:00,PA,4729242,,6400 RISING SUN AVE,METER EXPIRED,26,PPA,40.04979,-75.095038,True,19111.0
8980206,2017-11-03 13:02:00,PA,517894,,800 SOUTH ST,METER EXPIRED CC,36,PPA,39.942477,-75.155962,True,19147.0
8980207,2017-11-24 12:30:00,PA,1463480,,400 SOUTH ST,EXPIRED INSPECTION,41,PPA,39.941703,-75.150368,True,19147.0
8980208,2017-11-25 14:23:00,PA,1463480,,300 N 21ST ST,EXPIRED INSPECTION,41,PPA,39.961265,-75.173448,True,19103.0
8980209,2017-11-22 17:54:00,PA,4729243,,7200 RISING SUN AVE,METER EXPIRED,26,PPA,40.060667,-75.084557,True,19111.0
8980210,2017-11-11 10:04:00,PA,981643,,3700 LUDLOW ST,METER EXPIRED CC,36,PPA,39.95599,-75.197847,True,19104.0
8980211,2017-11-22 21:14:00,MA,4729244,,807 SANSOM ST,METER EXPIRED CC,36,PPA,39.948435,-75.154313,True,19107.0
8980212,2017-11-22 21:24:00,NJ,4729245,,727 WALNUT ST,METER EXPIRED CC,36,PPA,39.948142,-75.153723,True,19106.0
8980213,2017-11-22 11:19:00,PA,4729246,,1800 FITZWATER ST,PARKING PROHBITED,41,PPA,39.942757,-75.173678,True,19146.0
8980214,2017-11-22 11:23:00,PA,4729247,,606 S 19TH ST,METER EXPIRED CC,36,PPA,39.944462,-75.173585,True,19146.0
8980215,2017-10-10 21:22:00,NJ,4729248,,1300 WALNUT ST,METER EXPIRED CC,36,PPA,39.949433,-75.162803,True,19107.0
8980216,2017-11-15 19:48:00,PA,2254709,,1100 ARCH ST,METER EXPIRED CC,36,PPA,39.953708,-75.158608,True,19107.0
8980258,2017-12-19 16:46:00,PA,649367,,1 N 3RD ST,STOP PROHIBITED CC,76,PPA,39.950413,-75.145583,True,19106.0
8980259,2017-11-08 21:47:00,PA,2252398,,2200 S 16TH ST,STOPPING PROHIBITED,51,PPA,39.922018,-75.171897,True,19145.0
8980302,2017-10-27 16:07:00,PA,4729272,,400 WALNUT ST,METER EXPIRED CC,36,PPA,39.947493,-75.14858,True,19106.0
8980303,2017-11-14 11:12:00,PA,4729272,,100 N CROSKEY ST,OVER TIME LIMIT CC,36,PPA,39.956677,-75.176777,True,
8980304,2017-11-27 15:32:00,PA,4729272,,1700 LOCUST ST,METER EXPIRED CC,36,PPA,39.948583,-75.170272,True,19103.0
8980346,2017-10-02 20:09:00,IL,4729281,,1100 RACE ST,METER EXPIRED CC,36,PPA,39.956735,-75.158597,True,19107.0
8980347,2017-11-11 14:03:00,SC,4729282,,5200 CHESTNUT ST,METER EXPIRED,26,PPA,39.958658,-75.226153,True,19139.0
8980348,2017-10-01 20:11:00,PA,4729283,,25TH & CUMBERLAND,FIRE HYDRANT,76,POLICE,,,,
8980349,2017-11-11 14:21:00,FL,4729284,,5100 WALNUT ST,METER EXPIRED,26,PPA,39.956958,-75.224825,True,19139.0
8980350,2017-11-11 14:27:00,PA,4729285,,5100 WALNUT ST,METER EXPIRED,26,PPA,39.956857,-75.224617,True,19139.0
8980393,2017-11-16 11:03:00,PA,4729310,,700 N UBER ST,OVER TIME LIMIT,26,PPA,39.968458,-75.169102,True,19130.0
8980394,2017-11-11 12:24:00,NJ,4729311,,6000 GERMANTOWN AVE,METER EXPIRED,26,PPA,40.039553,-75.177833,True,19144.0
8980395,2017-11-22 17:31:00,PA,4729312,,1700 SANSOM ST,EXPIRED INSPECTION,41,PPA,39.95051,-75.170235,True,19103.0
8980396,2017-11-22 17:19:00,NJ,4729313,,1899 S 13TH ST,PARKING PROHBITED,41,PPA,39.926728,-75.167103,True,19148.0
8980397,2017-11-11 12:49:00,PA,4729314,,1 E ARMAT ST,METER EXPIRED,26,PPA,40.035297,-75.173353,True,19144.0
8980398,2017-12-14 14:02:00,PA,4729314,,5700 N MARVINE ST,OVER TIME LIMIT,26,PPA,40.040105,-75.139868,True,
8980399,2017-11-22 17:30:00,NJ,4729315,,1719 E PASSYUNK AVE,METER EXPIRED,26,PPA,39.928178,-75.165518,True,19148.0
8980400,2017-11-28 15:02:00,PA,2374656,,4500 GRISCOM ST,OVER TIME LIMIT,26,PPA,40.014903,-75.08672,True,19124.0
8980401,2017-11-10 11:19:00,PA,2532574,,500 S 26TH ST,PARKING PROHBITED CC,51,PPA,39.946783,-75.182937,True,19146.0
8980402,2017-12-16 11:20:00,PA,2506343,,5700 N 21ST ST,OVER TIME LIMIT,26,PPA,40.042452,-75.155887,True,19138.0
8980403,2017-12-08 11:04:00,PA,2480195,,1 S 18TH ST,HP RESERVED SPACE,301,PPA,39.952333,-75.170858,True,19103.0
8980404,2017-11-15 10:02:00,NJ,4729316,,1501 N BROAD ST,LOADING ZONE,31,POLICE,39.97656636598747,-75.15837102707067,False,19122.0
8980405,2017-12-04 10:04:00,PA,1462111,,1200 TASKER ST,PASSENGR LOADNG ZONE,31,PPA,39.930172,-75.165973,True,19148.0
8980406,2017-11-13 10:23:00,PA,2284678,,1900 CHEW AVE,HP RAMP BLOCKED,76,PPA,40.040858,-75.154027,True,
8980407,2017-12-11 17:32:00,PA,2173951,,5718 N BROAD ST,METER EXPIRED,26,PPA,40.040445,-75.144553,True,19141.0
8980408,2017-11-27 17:34:00,PA,2174732,,4000 LANCASTER AVE,METER EXPIRED,26,PPA,39.96441,-75.20426,True,19104.0
8980409,2017-12-01 13:11:00,PA,2081157,,2000 SANSOM ST,EXPIRED INSPECTION,41,PPA,39.951368,-75.174382,True,19103.0
8980410,2017-12-01 09:39:00,PA,2081157,,3217 WINTER ST,EXPIRED INSPECTION,41,PPA,39.959895,-75.188247,True,19104.0
8980411,2017-11-24 21:46:00,PA,4729317,,1028 RACE ST,STOP PROHIBITED CC,76,POLICE,39.95547583768649,-75.15668228837026,False,19107.0
8980412,2017-12-11 09:05:00,PA,2504640,,S BROAD ST,METER EXPIRED,26,PPA,39.925945,-75.169285,True,
8980413,2017-10-18 14:18:00,NJ,2348609,,200 N 35TH ST,OVER TIME LIMIT,26,PPA,39.959398,-75.192503,True,19104.0
8980455,2017-11-11 10:06:00,NJ,4729335,,5000 N 5TH ST,METER EXPIRED,26,PPA,40.02777,-75.132372,True,19120.0
8980456,2017-11-13 14:07:00,NJ,4729335,,3400 N BROAD ST,METER EXPIRED,26,PPA,40.005357,-75.151873,True,19140.0
8980457,2017-12-21 17:31:00,NJ,4729335,,1399 W ONTARIO ST,METER EXPIRED,26,PPA,40.004532,-75.1509,True,19140.0
8980499,2017-11-22 18:50:00,PA,4729363,,1 S 3RD ST,METER EXPIRED CC,36,PPA,39.949302,-75.14601,True,19106.0
8980500,2017-11-22 18:53:00,DE,4729364,,33 S 3RD ST,METER EXPIRED CC,36,PPA,39.949188,-75.146128,True,19106.0
8980501,2017-11-22 18:55:00,NY,4729365,,35 S 3RD ST,METER EXPIRED CC,36,PPA,39.949107,-75.146063,True,19106.0
8980502,2017-11-22 20:00:00,MA,4729366,,239 CHESTNUT ST,METER EXPIRED CC,36,PPA,39.948523,-75.145857,True,19106.0
8980503,2017-11-22 20:05:00,PA,4729367,,200 CHESTNUT ST,METER EXPIRED CC,36,PPA,39.948318,-75.144513,True,19106.0
8980504,2017-11-22 20:16:00,PA,4729368,,112 CHESTNUT ST,METER EXPIRED CC,36,PPA,39.948398,-75.143157,True,19106.0
8980505,2017-11-22 15:41:00,NY,4729369,,2200 CHESTNUT ST,EXPIRED INSPECTION,41,PPA,39.952603,-75.177462,True,19103.0
8980506,2017-11-11 14:06:00,PA,4729370,,3700 WALNUT ST,METER EXPIRED CC,36,PPA,39.95357,-75.198143,True,19104.0
8980507,2017-11-11 14:16:00,PA,4729371,,3700 MARKET ST,METER EXPIRED CC,36,PPA,39.956423,-75.196818,True,19104.0
8980508,2017-11-11 14:39:00,MI,4729372,,3600 WALNUT ST,METER EXPIRED CC,36,PPA,39.953173,-75.195537,True,19104.0
8980509,2017-11-11 14:50:00,PA,1131763,,200 S 38TH ST,METER EXPIRED CC,36,PPA,39.952512,-75.198865,True,
8980510,2017-11-09 15:18:00,PA,4729373,,1500 CALLOWHILL ST,METER EXPIRED CC,36,PPA,39.959868,-75.164407,True,19130.0
8980553,2017-10-18 01:23:00,PA,2075536,,2500 BROWN ST,PARKING PROHBITED,41,POLICE,39.97014769414851,-75.17833154398821,False,19130.0
8980554,2017-10-31 16:38:00,PA,1533161,,6500 CASTOR AVE,EXPIRED INSPECTION,41,PPA,40.04101,-75.075772,True,19149.0
8980555,2017-11-21 13:32:00,NY,4729390,,199 S 15TH ST,EXPIRED INSPECTION,41,PPA,39.949972,-75.165878,True,19102.0
8980556,2017-11-04 11:34:00,PA,2186531,,1 N 22ND ST,METER EXPIRED CC,36,PPA,39.955492,-75.176085,True,19103.0
8980557,2017-11-01 19:37:00,PA,720712,,1000 CHESTNUT ST,HP RESERVED SPACE,301,PPA,39.950068,-75.158117,True,19107.0
8980558,2017-10-15 08:55:00,NJ,2119238,,199 S 10TH ST,PASSENGR LOADNG ZONE,31,PPA,39.948947,-75.156738,True,19107.0
8980559,2017-10-13 11:53:00,FL,2325859,,1000 SOUTH ST,METER EXPIRED CC,36,PPA,39.942848,-75.15906,True,19147.0
8980560,2017-10-12 20:07:00,PA,4729391,,538 SOUTH ST,STOP PROHIBITED CC,76,PPA,39.94199,-75.152273,True,19147.0
8980561,2017-11-07 12:54:00,PA,4729392,,600 MARLYN RD,EXPIRED INSPECTION,41,POLICE,39.9729690846012,-75.24795435838796,False,19151.0
8980562,2017-12-14 21:48:00,PA,4729393,,125 SOUTH ST,METER EXPIRED CC,36,PPA,39.941083,-75.145005,True,19147.0
8980605,2017-10-28 11:32:00,PA,4729418,,600 S 8TH ST,OVER TIME LIMIT CC,36,PPA,39.941927,-75.155618,True,19147.0
8980606,2017-11-14 18:16:00,PA,1955273,,1500 W NORRIS ST,EXPIRED INSPECTION,41,PPA,39.983437,-75.158925,True,
8980607,2017-10-17 12:02:00,NJ,4729419,,299 S 3RD ST,OVER TIME LIMIT CC,36,PPA,39.945002,-75.146888,True,19106.0
8980608,2017-11-10 19:51:00,NY,4729420,,400 N 18TH ST,METER EXPIRED CC,36,PPA,39.961192,-75.168238,True,
8980650,2017-11-11 12:47:00,PA,2508638,,6600 CASTOR AVE,METER EXPIRED,26,PPA,40.04215,-75.074618,True,19149.0
8980651,2017-11-11 12:58:00,PA,4729438,,6500 CASTOR AVE,METER EXPIRED,26,PPA,40.041115,-75.07567,True,19149.0
8980652,2017-11-29 15:03:00,PA,4729438,,1015 CHESTNUT ST,METER EXPIRED CC,36,PPA,39.949943,-75.157827,True,19107.0
8980653,2017-11-11 09:42:00,PA,4729439,,6700 CASTOR AVE,METER EXPIRED,26,PPA,40.044075,-75.07293,True,19149.0
8980654,2017-11-11 09:48:00,PA,4729440,,6700 CASTOR AVE,METER EXPIRED,26,PPA,40.042828,-75.074197,True,19149.0
8980655,2017-11-11 10:44:00,PA,4729441,,6400 RISING SUN AVE,METER EXPIRED,26,PPA,40.050238,-75.094875,True,19111.0
8980656,2017-11-10 10:25:00,NJ,4729442,,1200 RIDGE AVE,OVER TIME LIMIT,26,PPA,39.96343,-75.158533,True,19123.0
8980657,2017-11-11 10:52:00,NJ,4729442,,6400 RISING SUN AVE,METER EXPIRED,26,PPA,40.050943,-75.09428,True,19111.0
8980658,2017-11-11 11:23:00,MA,4729443,,7300 FRANKFORD AVE,METER EXPIRED,26,PPA,40.03718,-75.039923,True,19136.0
8980659,2017-11-11 15:35:00,NY,4729444,,1 S FRONT ST,METER EXPIRED CC,36,PPA,39.949245,-75.142252,True,19106.0
8980660,2017-11-11 15:36:00,NJ,4729445,,1 S FRONT ST,METER EXPIRED CC,36,PPA,39.949412,-75.142132,True,19106.0
8980661,2017-11-11 15:51:00,PA,4729446,,200 WALNUT ST,METER EXPIRED CC,36,PPA,39.947192,-75.145717,True,19106.0
8980662,2017-11-11 11:41:00,PA,4729447,,3700 WALNUT ST,METER EXPIRED CC,36,PPA,39.9535,-75.197408,True,19104.0
8980663,2017-11-11 12:10:00,NJ,4729448,,3700 SPRUCE ST,METER EXPIRED CC,36,PPA,39.951052,-75.197893,True,19104.0
8980664,2017-11-11 12:13:00,NJ,4729449,,3600 SPRUCE ST,HP RESERVED SPACE,301,PPA,39.951017,-75.196998,True,19104.0
8980665,2017-09-23 10:30:00,PA,2397329,,800 RISING S,FIRE HYDRANT,76,POLICE,,,,
8980666,2017-11-11 12:23:00,PA,1864494,,100 S 36TH ST,METER EXPIRED CC,36,PPA,39.954305,-75.194505,True,19104.0
8980667,2017-11-11 12:26:00,PA,4729450,,100 S 36TH ST,STOP PROHIBITED CC,76,PPA,39.954632,-75.19457,True,19104.0
8980668,2017-11-11 10:25:00,PA,4729451,,3109 KENSINGTON AVE,METER EXPIRED,26,PPA,39.995103,-75.115588,True,19134.0
8980669,2017-11-29 12:08:00,PA,4729452,,1300 WYOMING AVE,OVER TIME LIMIT,26,PPA,40.024407,-75.146153,True,
